#aV2021 10 16  0  0  0.00000000     288 DD+AD WGS84 FIT  NGA
## 2179 518400.00000000   300.00000000 59503 0.0000000000000
+   32     1  2  3  4  5  6  7  8  9 10 11 12 13 14 15 16 17
+         18 19 20 21 22 23 24 25 26 27 28 29 30 31 32  0  0
+          0  0  0  0  0  0  0  0  0  0  0  0  0  0  0  0  0
+          0  0  0  0  0  0  0  0  0  0  0  0  0  0  0  0  0
+          0  0  0  0  0  0  0  0  0  0  0  0  0  0  0  0  0
++         2  2  2  2  2  2  2  2  2  2  2  2  2  2  2  2  2
++         2  2  2  2  2  2  2  2  2  2  2  2  2  2  2  0  0
++         0  0  0  0  0  0  0  0  0  0  0  0  0  0  0  0  0
++         0  0  0  0  0  0  0  0  0  0  0  0  0  0  0  0  0
++         0  0  0  0  0  0  0  0  0  0  0  0  0  0  0  0  0
%c cc cc ccc ccc cccc cccc cccc cccc ccccc ccccc ccccc ccccc
%c cc cc ccc ccc cccc cccc cccc cccc ccccc ccccc ccccc ccccc
%f  0.0000000  0.000000000  0.00000000000  0.000000000000000
%f  0.0000000  0.000000000  0.00000000000  0.000000000000000
%i    0    0    0    0      0      0      0      0         0
%i    0    0    0    0      0      0      0      0         0
/*      NGA, ST. LOUIS,MO.                                  
/*   EPHEMERIS COMPUTED FROM 2 DAYS OF DATA                 
/*   EPOCHA v7 SMOOTHER                                     
/*   G2139 IERS2010 SATIGS SATAPC                           
*  2021 10 16 23 40  0.00000000
P  1 -19988.518769 -14038.034257 -11111.641204    537.334478                    
V  1  13342.235385   2723.910707 -27815.495673     -0.107789                    
P  2  -2086.726330  15335.141557  22242.166752   -637.774395                    
V  2 -26061.071445  -5666.375225   1587.767042     -0.018291                    
P  3 -12523.681853 -20694.786707  10982.438964   -327.495819                    
V  3  -1112.088820 -14168.861144 -27601.994174     -0.136040                    
P  4 -11871.587197  -9742.682836  21676.456612   -203.556149                    
V  4  20572.246109 -18271.659852   2986.011186      0.004795                    
P  5   5517.526894  25793.332453   2108.843435    -57.903522                    
V  5  -3709.546839  -1983.595666  31635.573094     -0.012693                    
P  6 -16692.878471   8104.523436  19085.408285     96.185070                    
V  6 -22672.710192  -8002.677987 -16431.050017      0.082783                    
P  7 -25966.412016  -5809.044098  -3058.956208    263.585314                    
V  7  -3289.369922  -3845.425130  30919.479355      0.062077                    
P  8  -1650.937947 -17495.204353 -19828.484249    -40.369099                    
V  8  18992.848529 -16665.630555  13440.980290     -0.013811                    
P  9 -19709.956636   1644.630159  17668.732832   -361.839949                    
V  9  14997.737775 -16982.546753  18209.996251     -0.001466                    
P 10  13086.865477  -8337.411327 -21396.849497   -225.465244                    
V 10   6910.636788  26593.347747  -6382.180777     -0.081300                    
P 11  -4400.154372  14573.788970  21754.066973     21.234378                    
V 11 -25973.917195  -9472.630327   1077.002588      0.001193                    
P 12  10354.080114  22346.466779   9865.298233   -112.585816                    
V 12   -144.401575  13016.473539 -28475.325090     -0.055016                    
P 13  -7182.163049  19311.657986 -16824.127235    200.631842                    
V 13 -18192.377461  10863.874937  20564.461674      0.055284                    
P 14 -13707.679913   8247.073561 -21193.969209    -20.319135                    
V 14  -5631.734927 -26354.304857  -6666.228456     -0.075191                    
P 15   4636.903315  17444.376789 -19779.121087   -113.436256                    
V 15 -16948.881809  17738.379547  12249.264791      0.027774                    
P 16    130.630240 -25708.857998   5368.700613   -408.240161                    
V 16   3790.197583   6759.829842  31302.473605     -0.063341                    
P 17 -22303.485219  12427.680072  -6905.386365    520.174109                    
V 17   5832.949941  -7590.220930 -30560.545846      0.054092                    
P 18  25680.720302   4609.710660  -5249.027057    309.255407                    
V 18   5560.622785   4323.587120  30961.435255     -0.051155                    
P 19 -20694.294071  16451.780722   1036.627358     66.799420                    
V 19  -2736.027784   -901.069402 -32244.813689      0.049865                    
P 20   -961.897665  23261.851452  12997.004950    518.604463                    
V 20  -8509.442187 -14363.762897  24765.156297     -0.001924                    
P 21 -13950.071935 -14986.749817 -16526.468778    147.939959                    
V 21  21943.152740   3124.577631 -19969.169993      0.017849                    
P 22 -10888.969542 -24151.080676   3265.025059   -487.569281                    
V 22   1888.022292  -4810.536521 -30710.553786      0.091762                    
P 23  16011.264186   4489.257264 -20751.338864     44.271884                    
V 23   5859.920082  25613.897312   9994.909823     -0.046532                    
P 24  16928.111924  14879.732803 -14635.705355    254.633008                    
V 24 -18097.542496  -1706.718701 -22686.418211      0.060627                    
P 25  15364.592031  13371.445031  16927.519482    225.557725                    
V 25   3373.492695  21708.866459 -19633.779336      0.061285                    
P 26   7309.103548 -19075.193988  16759.278361    145.618944                    
V 26   8160.875790  20109.728843  19545.931002      0.039978                    
P 27   8332.969978 -20855.063476 -14059.868172   -207.156239                    
V 27  14290.775364 -10585.829380  24849.402237     -0.049731                    
P 28 -10498.548917  15636.702397 -18266.808013    481.184379                    
V 28  -4619.576174 -23822.476002 -17031.798507     -0.073053                    
P 29  17641.044876   2620.359037  19660.746686   -427.262671                    
V 29 -18870.567678  16390.357827  14652.491109     -0.054456                    
P 30 -22861.795879   2829.907219 -13353.683725   -483.007325                    
V 30 -15361.984905  -7829.075274  24276.263725     -0.035131                    
P 31  15342.253061  -9464.970289  19552.567500   -145.305906                    
V 31  23324.069666   8847.285564 -13482.305888     -0.019737                    
P 32  20854.826302 -15710.568334  -4197.019272    -10.970761                    
V 32  -1905.256601   5985.226029 -31201.837473     -0.041279                    
EOF
